"URI","country","elev","latitude","longitude","name","region","type"
"http://localhost:9091/project/volcanos/source/99","Japan","217","2.785E1","1.2825E2","Iwo-Tori-shima","Ryukyu Is","Complex volcano"
"http://localhost:9091/project/volcanos/source/98","Bolivia","5163","-2.073E1","-6.855E1","Irruputuncu","Chile-N","Stratovolcano"
"http://localhost:9091/project/volcanos/source/97","Costa Rica","3432","9.979E0","-8.3852E1","Irazu","Costa Rica","Stratovolcano"
"http://localhost:9091/project/volcanos/source/96","Indonesia","1018","-8.54E0","1.2359E2","Iliwerung","Lesser Sunda Is","Complex volcano"
"http://localhost:9091/project/volcanos/source/95","Indonesia","1659","-8.342E0","1.23258E2","Iliboleng","Lesser Sunda Is","Stratovolcano"
"http://localhost:9091/project/volcanos/source/94","Indonesia","2799","-8.058E0","1.14242E2","Ijen","Java","Stratovolcano"
"http://localhost:9091/project/volcanos/source/93","Indonesia","1325","1.475E0","1.27642E2","Ibu","Halmahera-Indonesia","Stratovolcano"
"http://localhost:9091/project/volcanos/source/92","Tonga","0","-2.057E1","-1.7538E2","Hunga Tonga-Hunga Ha'apai","Tonga-SW Pacific","Submarine volcano"
"http://localhost:9091/project/volcanos/source/91","Chile","1905","-4.59E1","-7.297E1","Hudson, Cerro","Chile-S","Stratovolcano"
"http://localhost:9091/project/volcanos/source/90","Tonga","-2","-1.8992E1","-1.74775E2","Home Reef","Tonga-SW Pacific","Submarine volcano"
"http://localhost:9091/project/volcanos/source/9","Russia","2339","5.0858E1","1.5555E2","Alaid","Kuril Is","Stratovolcano"
"http://localhost:9091/project/volcanos/source/89","Iceland","1491","6.398E1","-1.97E1","Hekla","Iceland-S","Stratovolcano"
"http://localhost:9091/project/volcanos/source/88","Heard I. & McDonald Is.","2745","-5.3106E1","7.3513E1","Heard","Indian O-S","Stratovolcano"
"http://localhost:9091/project/volcanos/source/87","Ecuador","4784","..171E-1","-7.8598E1","Guagua Pichincha","Ecuador","Stratovolcano"
"http://localhost:9091/project/volcanos/source/86","Russia","1211","4.502E1","1.4787E2","Grozny Group","Kuril Is","Complex volcano"
"http://localhost:9091/project/volcanos/source/85","Iceland","1725","6.442E1","-1.733E1","Grimsvotn","Iceland-NE","Caldera"
"http://localhost:9091/project/volcanos/source/84","United States","1740","5.208E1","-1.7613E2","Great Sitkin","Aleutian Is","Stratovolcano"
"http://localhost:9091/project/volcanos/source/83","Russia","1829","5.2558E1","1.5803E2","Gorely","Kamchatka","Caldera"
"http://localhost:9091/project/volcanos/source/82","Vanuatu","797","-1.427E1","1.675E2","Gaua","Vanuatu-SW Pacific","Stratovolcano"
"http://localhost:9091/project/volcanos/source/81","United States","1573","5.178E1","-1.788E2","Gareloi","Aleutian Is","Stratovolcano"
"http://localhost:9091/project/volcanos/source/80","Indonesia","1635","1.375E0","1.2752E2","Gamkonora","Halmahera-Indonesia","Stratovolcano"
"http://localhost:9091/project/volcanos/source/8","United States","1303","5.413E1","-1.6597E2","Akutan","Aleutian Is","Stratovolcano"
"http://localhost:9091/project/volcanos/source/79","Indonesia","1715","8.0E-1","1.27325E2","Gamalama","Halmahera-Indonesia","Stratovolcano"
"http://localhost:9091/project/volcanos/source/78","Indonesia","2168","-7.25E0","1.0805E2","Galunggung","Java","Stratovolcano"
"http://localhost:9091/project/volcanos/source/77","Colombia","4276","1.22E0","-7.737E1","Galeras","Colombia","Complex volcano"
"http://localhost:9091/project/volcanos/source/76","Pacific Ocean","-2430","7.92E-1","-8.615E1","Galapagos Rift","Pacific-E","Submarine volcano"
"http://localhost:9091/project/volcanos/source/75","Japan","-14","2.428E1","1.4152E2","Fukutoku-okanoba","Volcano Is-Japan","Submarine volcano"
"http://localhost:9091/project/volcanos/source/74","Japan","-217","2.1925E1","1.43442E2","Fukujin","Volcano Is-Japan","Submarine volcano"
"http://localhost:9091/project/volcanos/source/73","Guatemala","3763","1.4473E1","-9.088E1","Fuego","Guatemala","Stratovolcano"
"http://localhost:9091/project/volcanos/source/72","Reunion","2631","-2.1229E1","5.5713E1","Fournaise, Piton de la","Indian O-W","Shield volcano"
"http://localhost:9091/project/volcanos/source/71","Cape Verde","2829","1.495E1","-2.435E1","Fogo","Cape Verde Is","Stratovolcano"
"http://localhost:9091/project/volcanos/source/70","Ecuador","1495","..37E-1","-9.155E1","Fernandina","Galapagos","Shield volcano"
"http://localhost:9091/project/volcanos/source/7","Japan","1366","3.997E1","1.4077E2","Akita-Yake-yama","Honshu-Japan","Complex volcano"
"http://localhost:9091/project/volcanos/source/69","United States","360","2.053E1","1.449E2","Farallon de Pajaros","Mariana Is-C Pacific","Stratovolcano"
"http://localhost:9091/project/volcanos/source/68","Iceland","1666","6.363E1","-1.962E1","Eyjafjallajokull","Iceland-S","Stratovolcano"
"http://localhost:9091/project/volcanos/source/67","Italy","3350","3.7734E1","1.5004E1","Etna","Italy","Stratovolcano"
"http://localhost:9091/project/volcanos/source/66","Ethiopia","613","1.36E1","4.067E1","Erta Ale","Africa-NE","Shield volcano"
"http://localhost:9091/project/volcanos/source/65","Antarctica","3794","-7.753E1","1.6717E2","Erebus","Antarctica","Stratovolcano"
"http://localhost:9091/project/volcanos/source/64","Vanuatu","833","-1.668E1","1.6837E2","Epi","Vanuatu-SW Pacific","Stratovolcano"
"http://localhost:9091/project/volcanos/source/63","Russia","1170","4.8958E1","1.5393E2","Ekarma","Kuril Is","Stratovolcano"
"http://localhost:9091/project/volcanos/source/62","Indonesia","2124","-8.808E0","1.2118E2","Ebulobo","Lesser Sunda Is","Stratovolcano"
"http://localhost:9091/project/volcanos/source/61","Russia","1156","5.068E1","1.5602E2","Ebeko","Kuril Is","Somma volcano"
"http://localhost:9091/project/volcanos/source/60","Pacific Ocean","-80","-2.098E1","1.7028E2","Eastern Gemini Seamount","SW Pacific","Submarine volcano"
"http://localhost:9091/project/volcanos/source/6","Japan","1637","3.975E1","1.408E2","Akita-Komaga-take","Honshu-Japan","Stratovolcano"
"http://localhost:9091/project/volcanos/source/59","Indonesia","1185","1.68E0","1.2788E2","Dukono","Halmahera-Indonesia","Complex volcano"
"http://localhost:9091/project/volcanos/source/58","Indonesia","2565","-7.2E0","1.0992E2","Dieng Volc Complex","Java","Complex volcano"
"http://localhost:9091/project/volcanos/source/57","Philippines","244","1.9077E1","1.22202E2","Didicas","Luzon-N of","Compound volcano"
"http://localhost:9091/project/volcanos/source/56","Indonesia","3173","-4.03E0","1.0313E2","Dempo","Sumatra","Stratovolcano"
"http://localhost:9091/project/volcanos/source/55","Antarctica","576","-6.297E1","-6.065E1","Deception Island","Antarctica","Caldera"
"http://localhost:9091/project/volcanos/source/54","Tonga","-33","-1.562E1","-1.7367E2","Curacoa","Tonga-SW Pacific","Submarine volcano"
"http://localhost:9091/project/volcanos/source/53","Chile","2965","-3.785E1","-7.117E1","Copahue","Chile-C","Stratovolcano"
"http://localhost:9091/project/volcanos/source/52","Nicaragua","1700","1.1538E1","-8.5622E1","Concepcion","Nicaragua","Stratovolcano"
"http://localhost:9091/project/volcanos/source/51","Indonesia","507","..17E-1","1.21608E2","Colo [Una Una]","Sulawesi-Indonesia","Stratovolcano"
"http://localhost:9091/project/volcanos/source/50","Mexico","3850","1.9514E1","-1.0362E2","Colima","Mexico","Stratovolcano"
"http://localhost:9091/project/volcanos/source/5","Japan","1499","4.338E1","1.4402E2","Akan","Hokkaido-Japan","Caldera"
"http://localhost:9091/project/volcanos/source/49","Pacific Ocean","-2400","4.652E1","-1.2958E2","CoAxial Segment","Pacific-NE","Submarine volcano"
"http://localhost:9091/project/volcanos/source/48","United States","1730","5.282E1","-1.6995E2","Cleveland","Aleutian Is","Stratovolcano"
"http://localhost:9091/project/volcanos/source/47","Pacific Ocean","-2140","4.483E1","-1.303E2","Cleft Segment","Pacific-NE","Submarine volcano"
"http://localhost:9091/project/volcanos/source/46","Japan","2237","3.908E1","1.4003E2","Chokai","Honshu-Japan","Stratovolcano"
"http://localhost:9091/project/volcanos/source/45","Russia","742","4.6525E1","1.50875E2","Chirpoi","Kuril Is","Caldera"
"http://localhost:9091/project/volcanos/source/44","Russia","724","4.898E1","1.5348E2","Chirinkotan","Kuril Is","Stratovolcano"
"http://localhost:9091/project/volcanos/source/43","Chile","3212","-3.6863E1","-7.1377E1","Chillan, Nevados de","Chile-C","Stratovolcano"
"http://localhost:9091/project/volcanos/source/420","Russia","2958","5.359E1","1.59147E2","Zhupanovsky","Kamchatka","Compound volcano"
"http://localhost:9091/project/volcanos/source/42","Russia","1816","5.0325E1","1.55458E2","Chikurachki","Kuril Is","Stratovolcano"
"http://localhost:9091/project/volcanos/source/419","Taiwan","-418","2.618E1","1.22458E2","Zengyu","Taiwan-N of","Submarine volcano"
"http://localhost:9091/project/volcanos/source/418","Russia","624","4.6925E1","1.5195E2","Zavaritzki Caldera","Kuril Is","Caldera"
"http://localhost:9091/project/volcanos/source/417","Japan","1841","3.815E1","1.4045E2","Zao","Honshu-Japan","Complex volcano"
"http://localhost:9091/project/volcanos/source/416","United States","550","5.263E1","-1.7063E2","Yunaska","Aleutian Is","Shield volcano"
"http://localhost:9091/project/volcanos/source/415","United States","4317","6.2E1","-1.4402E2","Wrangell","Alaska-E","Shield volcano"
"http://localhost:9091/project/volcanos/source/414","Papua New Guinea","640","-9.57E0","1.49075E2","Waiowa","New Guinea","Pyroclastic cone"
"http://localhost:9091/project/volcanos/source/413","Rwanda","3711","-1.47E0","2.9492E1","Visoke","Africa-C","Stratovolcano"
"http://localhost:9091/project/volcanos/source/412","Papua New Guinea","1925","-9.2E0","1.4907E2","Victory","New Guinea","Stratovolcano"
"http://localhost:9091/project/volcanos/source/411","Italy","1281","4.0821E1","1.4426E1","Vesuvius","Italy","Complex volcano"
"http://localhost:9091/project/volcanos/source/410","Tonga","0","-2.107E1","-1.7533E2","Unnamed","Tonga-SW Pacific","Not Volcanic"
"http://localhost:9091/project/volcanos/source/41","United States","2075","5.713E1","-1.57E2","Chiginagak","Alaska Peninsula","Stratovolcano"
"http://localhost:9091/project/volcanos/source/409","Russia","-150","4.808E1","1.5333E2","Unnamed","Kuril Is","Submarine volcano"
"http://localhost:9091/project/volcanos/source/408","Tonga","-500","-2.138E1","-1.7565E2","Unnamed","Tonga-SW Pacific","Submarine volcano"
"http://localhost:9091/project/volcanos/source/407","United States","-4000","2.358E1","-1.6383E2","Unnamed","Hawaiian Is","Submarine volcano"
"http://localhost:9091/project/volcanos/source/406","Arctic Ocean","-1500","8.827E1","-6.56E1","Unnamed","Arctic Ocean","Submarine volcano"
"http://localhost:9091/project/volcanos/source/405","Peru","5815","-1.7025E1","-7.0358E1","Tutupaca","Peru","Stratovolcano"
"http://localhost:9091/project/volcanos/source/404","Ethiopia","2349","8.158E0","3.913E1","Tullu Moje","Africa-NE","Pumice cone"
"http://localhost:9091/project/volcanos/source/403","Atlantic Ocean","2060","-3.7092E1","-1.228E1","Tristan da Cunha","Atlantic-S","Stratovolcano"
"http://localhost:9091/project/volcanos/source/402","Colombia","5200","4.67E0","-7.533E1","Tolima","Colombia","Stratovolcano"
"http://localhost:9091/project/volcanos/source/401","Tonga","512","-1.975E1","-1.7507E2","Tofua","Tonga-SW Pacific","Caldera"
"http://localhost:9091/project/volcanos/source/400","Chile","4280","-3.4814E1","-7.0352E1","Tinguiririca","Chile-C","Stratovolcano"
"http://localhost:9091/project/volcanos/source/40","Mexico","1150","1.736E1","-9.3228E1","Chichon, El","Mexico","Tuff cone"
"http://localhost:9091/project/volcanos/source/4","Russia","1180","5.398E1","1.5945E2","Akademia Nauk","Kamchatka","Stratovolcano"
"http://localhost:9091/project/volcanos/source/399","Iceland","1659","6.227E1","-1.76E1","Thordarhyrna","Iceland-S","Stratovolcano"
"http://localhost:9091/project/volcanos/source/398","Pacific Ocean","655","-6.92E0","1.29125E2","Teon","Banda Sea","Stratovolcano"
"http://localhost:9091/project/volcanos/source/397","Spain","3715","2.8271E1","-1.6641E1","Tenerife","Canary Is","Stratovolcano"
"http://localhost:9091/project/volcanos/source/396","Indonesia","2624","4.77E0","9.6808E1","Telong, Bur Ni","Sumatra","Stratovolcano"
"http://localhost:9091/project/volcanos/source/395","Russia","1325","4.935E1","1.547E2","Tao-Rusyr Caldera","Kuril Is","Stratovolcano"
"http://localhost:9091/project/volcanos/source/394","Indonesia","2438","..433E-1","1.00317E2","Tandikat","Sumatra","Stratovolcano"
"http://localhost:9091/project/volcanos/source/393","United States","1806","5.188E1","-1.7813E2","Tanaga","Aleutian Is","Stratovolcano"
"http://localhost:9091/project/volcanos/source/392","Indonesia","1000","-5.25E0","1.0427E2","Suoh","Sumatra","Maar"
"http://localhost:9091/project/volcanos/source/391","Indonesia","2507","-2.414E0","1.01728E2","Sumbing","Sumatra","Stratovolcano"
"http://localhost:9091/project/volcanos/source/390","United States","270","-2.38E0","1.4735E2","St. Andrew Strait","Admiralty Is-SW Paci","Complex volcano"
"http://localhost:9091/project/volcanos/source/39","Chile","962","-4.2833E1","-7.2646E1","Chaiten","Chile-S","Caldera"
"http://localhost:9091/project/volcanos/source/389","Philippines","2090","1.9523E1","1.2194E2","Smith Volcano","Luzon-N of","Stratovolcano"
"http://localhost:9091/project/volcanos/source/388","Japan","136","3.132E1","1.4005E2","Smith Rock","Izu Is-Japan","Submarine volcano"
"http://localhost:9091/project/volcanos/source/387","Japan","1563","4.413E1","1.4517E2","Shiretoko-Iwo-zan","Hokkaido-Japan","Stratovolcano"
"http://localhost:9091/project/volcanos/source/386","Pacific Ocean","641","-6.3E0","1.3E2","Serua","Banda Sea","Stratovolcano"
"http://localhost:9091/project/volcanos/source/385","Samoa","1858","-1.3612E1","-1.72525E2","Savai'i","Samoa-SW Pacific","Shield volcano"
"http://localhost:9091/project/volcanos/source/384","Greece","329","3.6404E1","2.5396E1","Santorini","Greece","Shield volcano"
"http://localhost:9091/project/volcanos/source/383","Ecuador","920","..22E-1","-9.077E1","Santiago","Galapagos","Shield volcano"
"http://localhost:9091/project/volcanos/source/382","Equatorial Guinea","2972","3.58E0","8.75E0","Santa Isabel","Africa-W","Shield volcano"
"http://localhost:9091/project/volcanos/source/381","El Salvador","2365","1.3853E1","-8.963E1","Santa Ana","El Salvador","Stratovolcano"
"http://localhost:9091/project/volcanos/source/380","El Salvador","1893","1.3736E1","-8.9286E1","San Salvador","El Salvador","Stratovolcano"
"http://localhost:9091/project/volcanos/source/38","Chile","1114","-4.035E1","-7.207E1","Carran-Los Venados","Chile-C","Pyroclastic cone"
"http://localhost:9091/project/volcanos/source/379","Chile","6145","-2.188E1","-6.84E1","San Pedro","Chile-N","Stratovolcano"
"http://localhost:9091/project/volcanos/source/378","El Salvador","2381","1.3853E1","-8.963E1","San Marcelino","El Salvador","Stratovolcano"
"http://localhost:9091/project/volcanos/source/377","Argentina","5856","-3.3782E1","-6.9897E1","San Jose","Chile-C","Stratovolcano"
"http://localhost:9091/project/volcanos/source/376","Portugal","1053","3.865E1","-2.808E1","San Jorge","Azores","Fissure vent"
"http://localhost:9091/project/volcanos/source/375","Indonesia","2211","-6.72E0","1.0673E2","Salak","Java","Stratovolcano"
"http://localhost:9091/project/volcanos/source/374","Indonesia","725","2.28E0","1.25425E2","Ruang","Sangihe Is-Indonesia","Stratovolcano"
"http://localhost:9091/project/volcanos/source/373","Russia","956","4.777E1","1.5302E2","Rasshua","Kuril Is","Stratovolcano"
"http://localhost:9091/project/volcanos/source/372","Russia","551","4.8292E1","1.5325E2","Raikoke","Kuril Is","Stratovolcano"
"http://localhost:9091/project/volcanos/source/371","Philippines","2815","7.67E0","1.245E2","Ragang","Mindanao-Philippines","Stratovolcano"
"http://localhost:9091/project/volcanos/source/370","Antarctica","-27","-5.592E1","-2.808E1","Protector Shoal","Antarctica","Submarine volcano"
"http://localhost:9091/project/volcanos/source/37","Philippines","2435","1.0412E1","1.23132E2","Canlaon","Philippines-C","Stratovolcano"
"http://localhost:9091/project/volcanos/source/369","Ecuador","780","5.8E-1","-9.075E1","Pinta","Galapagos","Shield volcano"
"http://localhost:9091/project/volcanos/source/368","Nicaragua","1088","1.2495E1","-8.6688E1","Pilas, Las","Nicaragua","Complex volcano"
"http://localhost:9091/project/volcanos/source/367","Antarctica","180","-6.21E1","-5.793E1","Penguin Island","Antarctica","Stratovolcano"
"http://localhost:9091/project/volcanos/source/366","Martinique","1397","1.482E1","-6.117E1","Pelee","W Indies","Stratovolcano"
"http://localhost:9091/project/volcanos/source/365","Mexico","3860","1.948E1","-1.0225E2","Paricutin Volcanic Field","Mexico","Cinder cone"
"http://localhost:9091/project/volcanos/source/364","Indonesia","2665","-7.32E0","1.0773E2","Papandayan","Java","Stratovolcano"
"http://localhost:9091/project/volcanos/source/363","Papua New Guinea","742","-5.58E0","1.5052E2","Pago","New Britain-SW Pac","Caldera"
"http://localhost:9091/project/volcanos/source/362","Indian Ocean","0","2.6E1","5.7E1","Ormus Islands","Arabia-S","Submarine volcano"
"http://localhost:9091/project/volcanos/source/361","United States","841","5.827E1","-1.5516E2","Novarupta","Alaska Peninsula","Caldera"
"http://localhost:9091/project/volcanos/source/360","Russia","1018","4.957E1","1.54808E2","Nemo Peak","Kuril Is","Caldera"
"http://localhost:9091/project/volcanos/source/36","Cameroon","4095","4.203E0","9.17E0","Cameroon, Mt.","Africa-W","Stratovolcano"
"http://localhost:9091/project/volcanos/source/359","Ecuador","4445","8.28E-1","-7.7964E1","Negro de Mayasquer, Cerro","Colombia","Stratovolcano"
"http://localhost:9091/project/volcanos/source/358","Japan","1917","3.712E1","1.3997E2","Nasu","Honshu-Japan","Stratovolcano"
"http://localhost:9091/project/volcanos/source/357","Japan","979","2.985E1","1.2987E2","Nakano-shima","Ryukyu Is","Stratovolcano"
"http://localhost:9091/project/volcanos/source/356","Russia","2322","5.2453E1","1.58195E2","Mutnovsky","Kamchatka","Complex volcano"
"http://localhost:9091/project/volcanos/source/355","Portugal","-197","3.76E1","-2.588E1","Monaco Bank","Azores","Submarine volcano"
"http://localhost:9091/project/volcanos/source/354","Nicaragua","1297","1.2422E1","-8.654E1","Momotombo","Nicaragua","Stratovolcano"
"http://localhost:9091/project/volcanos/source/353","Chile","2422","-3.9927E1","-7.2027E1","Mocho-Choshuenco","Chile-C","Stratovolcano"
"http://localhost:9091/project/volcanos/source/352","Costa Rica","2028","1.0748E1","-8.5153E1","Miravalles","Costa Rica","Stratovolcano"
"http://localhost:9091/project/volcanos/source/351","Mexico","3860","1.948E1","-1.0225E2","Michoacan-Guanajuato","Mexico","Cinder cone"
"http://localhost:9091/project/volcanos/source/350","Tanzania","4565","-3.25E0","3.675E1","Meru","Africa-E","Stratovolcano"
"http://localhost:9091/project/volcanos/source/35","Chile","3164","-3.792E1","-7.145E1","Callaqui","Chile-C","Stratovolcano"
"http://localhost:9091/project/volcanos/source/349","Pacific Ocean","177","-2.233E1","1.7132E2","Matthew Island","SW Pacific","Stratovolcano"
"http://localhost:9091/project/volcanos/source/348","United States","1860","5.817E1","-1.5535E2","Martin","Alaska Peninsula","Stratovolcano"
"http://localhost:9091/project/volcanos/source/347","Ethiopia","600","1.238E1","4.22E1","Manda-Inakir","Africa-NE","Fissure vent"
"http://localhost:9091/project/volcanos/source/346","Russia","1560","5.413E1","1.5967E2","Maly Semiachik","Kamchatka","Caldera"
"http://localhost:9091/project/volcanos/source/345","Argentina","5264","-3.4161E1","-6.9833E1","Maipo","Chile-C","Caldera"
"http://localhost:9091/project/volcanos/source/344","United States","2165","5.82E1","-1.5525E2","Mageik","Alaska Peninsula","Stratovolcano"
"http://localhost:9091/project/volcanos/source/343","Papua New Guinea","858","-4.92E0","1.51158E2","Lolobau","New Britain-SW Pac","Caldera"
"http://localhost:9091/project/volcanos/source/342","Iceland","1570","6.448E1","-1.78E1","Loki-Fogrufjoll","Iceland-NE","Subglacial volcano"
"http://localhost:9091/project/volcanos/source/341","Indonesia","1423","-8.272E0","1.23505E2","Lewotolo","Lesser Sunda Is","Stratovolcano"
"http://localhost:9091/project/volcanos/source/340","Chile","3380","-4.902E1","-7.355E1","Lautaro","Chile-S","Stratovolcano"
"http://localhost:9091/project/volcanos/source/34","Philippines","1565","1.277E1","1.2405E2","Bulusan","Luzon-Philippines","Stratovolcano"
"http://localhost:9091/project/volcanos/source/339","United States","3187","4.0492E1","-1.21508E2","Lassen Volc Center","US-California","Stratovolcano"
"http://localhost:9091/project/volcanos/source/338","Papua New Guinea","1680","-8.95E0","1.4815E2","Lamington","New Guinea","Stratovolcano"
"http://localhost:9091/project/volcanos/source/337","Japan","1628","3.895E1","1.4078E2","Kurikoma","Honshu-Japan","Stratovolcano"
"http://localhost:9091/project/volcanos/source/336","China","5808","3.552E1","8.02E1","Kunlun Volc Group","China-W","Pyroclastic cone"
"http://localhost:9091/project/volcanos/source/335","Russia","1079","5.18E1","1.5753E2","Ksudach","Kamchatka","Stratovolcano"
"http://localhost:9091/project/volcanos/source/334","Russia","3528","5.4753E1","1.60527E2","Kronotsky","Kamchatka","Stratovolcano"
"http://localhost:9091/project/volcanos/source/333","Russia","3456","5.332E1","1.58688E2","Koryaksky","Kamchatka","Stratovolcano"
"http://localhost:9091/project/volcanos/source/332","Russia","2485","5.513E1","1.6032E2","Kizimen","Kamchatka","Stratovolcano"
"http://localhost:9091/project/volcanos/source/331","Japan","792","2.543E1","1.4123E2","Kita-Iwo-jima","Volcano Is-Japan","Stratovolcano"
"http://localhost:9091/project/volcanos/source/330","Indonesia","1511","-6.73E0","1.0665E2","Kiaraberes-Gagak","Java","Stratovolcano"
"http://localhost:9091/project/volcanos/source/33","United States","101","5.393E1","-1.6803E2","Bogoslof","Aleutian Is","Submarine volcano"
"http://localhost:9091/project/volcanos/source/329","Russia","1145","4.912E1","1.54508E2","Kharimkotan","Kuril Is","Stratovolcano"
"http://localhost:9091/project/volcanos/source/328","Russia","1172","4.735E1","1.52475E2","Ketoi","Kuril Is","Stratovolcano"
"http://localhost:9091/project/volcanos/source/327","United States","2047","5.827E1","-1.5498E2","Katmai","Alaska Peninsula","Stratovolcano"
"http://localhost:9091/project/volcanos/source/326","Iceland","1512","6.363E1","-1.905E1","Katla","Iceland-S","Subglacial volcano"
"http://localhost:9091/project/volcanos/source/325","Russia","1345","5.013E1","1.5537E2","Karpinsky Group","Kuril Is","Cone"
"http://localhost:9091/project/volcanos/source/324","United States","893","5.297E1","-1.6972E2","Kagamil","Aleutian Is","Stratovolcano"
"http://localhost:9091/project/volcanos/source/323","Indonesia","1952","-3.52E0","1.0262E2","Kaba","Sumatra","Stratovolcano"
"http://localhost:9091/project/volcanos/source/322","Japan","2041","3.985E1","1.41E2","Iwate","Honshu-Japan","Complex volcano"
"http://localhost:9091/project/volcanos/source/321","Chile","5050","-1.915E1","-6.883E1","Isluga","Chile-N","Stratovolcano"
"http://localhost:9091/project/volcanos/source/320","Japan","-200","2.4558E1","1.24E2","Iriomote-jima","Ryukyu Is","Submarine volcano"
"http://localhost:9091/project/volcanos/source/32","Russia","2882","5.5978E1","1.60587E2","Bezymianny","Kamchatka","Stratovolcano"
"http://localhost:9091/project/volcanos/source/319","Indonesia","1559","-8.73E0","1.2098E2","Inielika","Lesser Sunda Is","Complex volcano"
"http://localhost:9091/project/volcanos/source/318","Russia","1578","5.149E1","1.572E2","Ilyinsky","Kamchatka","Stratovolcano"
"http://localhost:9091/project/volcanos/source/317","United States","3053","6.003E1","-1.5308E2","Iliamna","Alaska-SW","Stratovolcano"
"http://localhost:9091/project/volcanos/source/316","Pacific Ocean","297","-2.24E1","1.7205E2","Hunter Island","SW Pacific","Stratovolcano"
"http://localhost:9091/project/volcanos/source/315","Chile","1318","-4.2377E1","-7.2578E1","Huequi","Chile-S","Stratovolcano"
"http://localhost:9091/project/volcanos/source/314","Philippines","1332","9.203E0","1.24673E2","Hibok-Hibok","Mindanao-Philippines","Stratovolcano"
"http://localhost:9091/project/volcanos/source/313","Chile","6071","-1.842E1","-6.917E1","Guallatiri","Chile-N","Stratovolcano"
"http://localhost:9091/project/volcanos/source/312","Russia","891","4.683E1","1.5175E2","Goriaschaia Sopka","Kuril Is","Stratovolcano"
"http://localhost:9091/project/volcanos/source/311","Indonesia","2885","4.813E0","9.682E1","Geureudong","Sumatra","Stratovolcano"
"http://localhost:9091/project/volcanos/source/310","Indonesia","2958","-6.78E0","1.0698E2","Gede","Java","Stratovolcano"
"http://localhost:9091/project/volcanos/source/31","Japan","10","3.192E1","1.3992E2","Bayonnaise Rocks","Izu Is-Japan","Submarine volcano"
"http://localhost:9091/project/volcanos/source/309","Tonga","200","-1.802E1","-1.74325E2","Fonualei","Tonga-SW Pacific","Stratovolcano"
"http://localhost:9091/project/volcanos/source/308","Portugal","1043","3.86E1","-2.873E1","Fayal","Azores","Stratovolcano"
"http://localhost:9091/project/volcanos/source/307","Tonga","-17","-2.032E1","-1.7542E2","Falcon Island","Tonga-SW Pacific","Submarine volcano"
"http://localhost:9091/project/volcanos/source/306","Iceland","1760","6.427E1","-1.665E1","Esjufjoll","Iceland-SE","Stratovolcano"
"http://localhost:9091/project/volcanos/source/305","Kenya","1328","1.5E0","3.633E1","Emuruangogolak","Africa-E","Shield volcano"
"http://localhost:9091/project/volcanos/source/304","Indonesia","1703","-8.67E0","1.2245E2","Egon","Lesser Sunda Is","Stratovolcano"
"http://localhost:9091/project/volcanos/source/303","Colombia","4150","1.47E0","-7.692E1","Dona Juana","Colombia","Stratovolcano"
"http://localhost:9091/project/volcanos/source/302","Yemen","3500","1.457E1","4.467E1","Dhamar, Harras of","Arabia-S","Volcanic field"
"http://localhost:9091/project/volcanos/source/301","Chile","3953","-3.558E1","-7.075E1","Descabezado Grande","Chile-C","Stratovolcano"
"http://localhost:9091/project/volcanos/source/300","Ethiopia","-48","1.4242E1","4.03E1","Dallol","Africa-NE","Explosion crater"
"http://localhost:9091/project/volcanos/source/30","Indonesia","1717","-8.242E0","1.15375E2","Batur","Lesser Sunda Is","Caldera"
"http://localhost:9091/project/volcanos/source/3","Indonesia","3142","-8.342E0","1.15508E2","Agung","Lesser Sunda Is","Stratovolcano"
"http://localhost:9091/project/volcanos/source/299","Colombia","4764","9.8E-1","-7.788E1","Cumbal","Colombia","Stratovolcano"
"http://localhost:9091/project/volcanos/source/298","Ecuador","5911","..677E-1","-7.8436E1","Cotopaxi","Ecuador","Stratovolcano"
"http://localhost:9091/project/volcanos/source/297","Chile","1798","-4.052E1","-7.22E1","Cordon Caulle","Chile-C","Fissure vent"
"http://localhost:9091/project/volcanos/source/296","Indonesia","3078","-6.892E0","1.084E2","Cereme","Java","Stratovolcano"
"http://localhost:9091/project/volcanos/source/295","Vietnam","-20","1.0158E1","1.09014E2","Cendres, Ile des","SE Asia","Submarine volcanoes"
"http://localhost:9091/project/volcanos/source/294","Antarctica","550","-5.708E1","-2.667E1","Candlemas Island","Antarctica","Stratovolcano"
"http://localhost:9091/project/volcanos/source/293","Chile","2003","-4.1326E1","-7.2614E1","Calbuco","Chile-S","Stratovolcano"
"http://localhost:9091/project/volcanos/source/292","Chile","1758","-5.233E1","-7.34E1","Burney, Monte","Chile-S","Stratovolcano"
"http://localhost:9091/project/volcanos/source/291","Antarctica","1100","-5.903E1","-2.658E1","Bristol Island","Antarctica","Stratovolcano"
"http://localhost:9091/project/volcanos/source/290","Philippines","1187","1.1523E1","1.24534E2","Biliran","Philippines-C","Compound volcano"
"http://localhost:9091/project/volcanos/source/29","India","354","1.2292E1","9.3875E1","Barren Island","Andaman Is-Indian O","Stratovolcano"
"http://localhost:9091/project/volcanos/source/289","Indonesia","1899","-4.43E0","1.0367E2","Besar","Sumatra","Stratovolcano"
"http://localhost:9091/project/volcanos/source/288","Kenya","1032","2.32E0","3.657E1","Barrier, The","Africa-E","Shield volcano"
"http://localhost:9091/project/volcanos/source/287","Iceland","2000","6.463E1","-1.753E1","Bardarbunga","Iceland-NE","Stratovolcano"
"http://localhost:9091/project/volcanos/source/286","Mexico","332","1.93E1","-1.1082E2","Barcena","Mexico-Is","Cinder cone"
"http://localhost:9091/project/volcanos/source/285","Russia","1132","4.51E1","1.4802E2","Baransky","Kuril Is","Stratovolcano"
"http://localhost:9091/project/volcanos/source/284","Indonesia","-5","3.138E0","1.25491E2","Banua Wuhu","Sangihe Is-Indonesia","Submarine volcano"
"http://localhost:9091/project/volcanos/source/283","Papua New Guinea","685","-3.6E0","1.4485E2","Bam","New Guinea-NE of","Stratovolcano"
"http://localhost:9091/project/volcanos/source/282","Philippines","1180","1.9523E1","1.2194E2","Babuyan Claro","Luzon-N of","Stratovolcano"
"http://localhost:9091/project/volcanos/source/281","Russia","1205","4.4804E1","1.4713E2","Atsonupuri","Kuril Is","Stratovolcano"
"http://localhost:9091/project/volcanos/source/280","United States","857","1.967E1","1.454E2","Asuncion","Mariana Is-C Pacific","Stratovolcano"
"http://localhost:9091/project/volcanos/source/28","Pacific Ocean","640","-4.525E0","1.29871E2","Banda Api","Banda Sea","Caldera"
"http://localhost:9091/project/volcanos/source/279","Iceland","1516","6.503E1","-1.675E1","Askja","Iceland-NE","Stratovolcano"
"http://localhost:9091/project/volcanos/source/278","Indonesia","3339","-7.725E0","1.1258E2","Arjuno-Welirang","Java","Stratovolcano"
"http://localhost:9091/project/volcanos/source/277","United States","1341","5.688E1","-1.5817E2","Aniakchak","Alaska Peninsula","Caldera"
"http://localhost:9091/project/volcanos/source/276","Ethiopia","1501","1.288E1","4.057E1","Alayta","Africa-NE","Shield volcano"
"http://localhost:9091/project/volcanos/source/275","United States","965","1.877E1","1.4567E2","Agrigan","Mariana Is-C Pacific","Stratovolcano"
"http://localhost:9091/project/volcanos/source/274","Russia","1953","5.157E1","1.57323E2","Zheltovsky","Kamchatka","Stratovolcano"
"http://localhost:9091/project/volcanos/source/273","Vanuatu","361","-1.952E1","1.69425E2","Yasur","Vanuatu-SW Pacific","Stratovolcano"
"http://localhost:9091/project/volcanos/source/272","Japan","2455","3.622E1","1.3758E2","Yake-dake","Honshu-Japan","Stratovolcano"
"http://localhost:9091/project/volcanos/source/271","Ecuador","1710","2.0E-2","-9.135E1","Wolf, Volcan","Galapagos","Shield volcano"
"http://localhost:9091/project/volcanos/source/270","New Zealand","321","-3.752E1","1.7718E2","White Island","New Zealand","Stratovolcano"
"http://localhost:9091/project/volcanos/source/27","Papua New Guinea","1750","-6.14E0","1.55195E2","Bagana","Bougainville-SW Paci","Lava cone"
"http://localhost:9091/project/volcanos/source/269","United States","1654","5.452E1","-1.6465E2","Westdahl","Aleutian Is","Stratovolcano"
"http://localhost:9091/project/volcanos/source/268","Chile","2847","-3.942E1","-7.193E1","Villarrica","Chile-C","Stratovolcano"
"http://localhost:9091/project/volcanos/source/267","Argentina","1300","-4.9358E1","-7.328E1","Viedma, Volcan","Argentina","Subglacial volcano"
"http://localhost:9091/project/volcanos/source/266","Iceland","279","6.343E1","-2.028E1","Vestmannaeyjar","Iceland-S","Submarine volcano"
"http://localhost:9091/project/volcanos/source/265","United States","2507","5.617E1","-1.5938E2","Veniaminof","Alaska Peninsula","Stratovolcano"
"http://localhost:9091/project/volcanos/source/264","Japan","731","4.253E1","1.4083E2","Usu","Hokkaido-Japan","Stratovolcano"
"http://localhost:9091/project/volcanos/source/263","Japan","1500","3.275E1","1.303E2","Unzen","Kyushu-Japan","Complex volcano"
"http://localhost:9091/project/volcanos/source/262","United States","0","5.2E1","-1.735E2","Unnamed","Aleutian Is","Submarine volcano"
"http://localhost:9091/project/volcanos/source/261","Pacific Ocean","-2566","-1.7436E1","-1.13206E2","Unnamed","Pacific-E","Submarine volcano"
"http://localhost:9091/project/volcanos/source/260","Pacific Ocean","-2400","-2.578E1","1.6863E2","Unnamed","SW Pacific","Submarine volcano"
"http://localhost:9091/project/volcanos/source/26","Japan","2024","3.773E1","1.4025E2","Azuma","Honshu-Japan","Stratovolcano"
"http://localhost:9091/project/volcanos/source/259","Pacific Ocean","-2500","9.82E0","-1.043E2","Unnamed","Pacific-E","Submarine volcano"
"http://localhost:9091/project/volcanos/source/258","Tonga","-13","-2.085E1","-1.7553E2","Unnamed","Tonga-SW Pacific","Submarine volcano"
"http://localhost:9091/project/volcanos/source/257","United States","-1300","-3.03E0","1.4778E2","Unnamed","Admiralty Is-SW Paci","Submarine volcano"
"http://localhost:9091/project/volcanos/source/256","Russia","-502","4.647E1","1.5128E2","Unnamed","Kuril Is","Submarine volcano"
"http://localhost:9091/project/volcanos/source/255","Papua New Guinea","2334","-5.05E0","1.5133E2","Ulawun","New Britain-SW Pac","Stratovolcano"
"http://localhost:9091/project/volcanos/source/254","United States","91","5.783E1","-1.5652E2","Ukinrek Maars","Alaska Peninsula","Maar"
"http://localhost:9091/project/volcanos/source/253","Peru","5672","-1.6355E1","-7.0903E1","Ubinas","Peru","Stratovolcano"
"http://localhost:9091/project/volcanos/source/252","Chile","6000","-3.34E1","-6.98E1","Tupungatito","Chile-C","Stratovolcano"
"http://localhost:9091/project/volcanos/source/251","Ecuador","5023","-1.467E0","-7.8442E1","Tungurahua","Ecuador","Stratovolcano"
"http://localhost:9091/project/volcanos/source/250","United States","1864","5.823E1","-1.5508E2","Trident","Alaska Peninsula","Stratovolcano"
"http://localhost:9091/project/volcanos/source/25","Chile","3788","-3.5653E1","-7.0761E1","Azul, Cerro [Quizapu]","Chile-C","Stratovolcano"
"http://localhost:9091/project/volcanos/source/249","Japan","403","3.048E1","1.4032E2","Tori-shima","Izu Is-Japan","Stratovolcano"
"http://localhost:9091/project/volcanos/source/248","New Zealand","1978","-3.913E1","1.75642E2","Tongariro","New Zealand","Stratovolcano"
"http://localhost:9091/project/volcanos/source/247","Russia","3682","5.583E1","1.6033E2","Tolbachik","Kamchatka","Shield volcano"
"http://localhost:9091/project/volcanos/source/246","Japan","2077","4.342E1","1.4268E2","Tokachi","Hokkaido-Japan","Stratovolcano"
"http://localhost:9091/project/volcanos/source/245","Solomon Is.","851","-1.038E1","1.658E2","Tinakula","Santa Cruz Is-SW Pac","Stratovolcano"
"http://localhost:9091/project/volcanos/source/244","Russia","1819","4.4358E1","1.4627E2","Tiatia","Kuril Is","Stratovolcano"
"http://localhost:9091/project/volcanos/source/243","Antarctica","1075","-5.945E1","-2.737E1","Thule Islands","Antarctica","Stratovolcano"
"http://localhost:9091/project/volcanos/source/242","Portugal","1023","3.873E1","-2.732E1","Terceira","Azores","Stratovolcano"
"http://localhost:9091/project/volcanos/source/241","Indonesia","2329","-7.942E0","1.1295E2","Tengger Caldera","Java","Stratovolcano"
"http://localhost:9091/project/volcanos/source/240","Nicaragua","1061","1.2602E1","-8.6845E1","Telica","Nicaragua","Stratovolcano"
"http://localhost:9091/project/volcanos/source/24","Ecuador","1690","..9E-1","-9.142E1","Azul, Cerro","Galapagos","Shield volcano"
"http://localhost:9091/project/volcanos/source/239","Indonesia","2084","-6.77E0","1.076E2","Tangkubanparahu","Java","Stratovolcano"
"http://localhost:9091/project/volcanos/source/238","Indonesia","2850","-8.25E0","1.18E2","Tambora","Lesser Sunda Is","Stratovolcano"
"http://localhost:9091/project/volcanos/source/237","Indonesia","2597","..978E-1","1.00679E2","Talang","Sumatra","Stratovolcano"
"http://localhost:9091/project/volcanos/source/236","Mexico","4110","1.513E1","-9.2112E1","Tacana","Mexico","Stratovolcano"
"http://localhost:9091/project/volcanos/source/235","Philippines","400","1.4002E1","1.20993E2","Taal","Luzon-Philippines","Stratovolcano"
"http://localhost:9091/project/volcanos/source/234","Japan","799","2.953E1","1.2972E2","Suwanose-jima","Ryukyu Is","Stratovolcano"
"http://localhost:9091/project/volcanos/source/233","Vanuatu","921","-1.38E1","1.6747E2","Suretamatai","Vanuatu-SW Pacific","Complex volcano"
"http://localhost:9091/project/volcanos/source/232","United States","-8","2.013E1","1.451E2","Supply Reef","Mariana Is-C Pacific","Submarine volcano"
"http://localhost:9091/project/volcanos/source/231","Indonesia","3136","-7.3E0","1.09992E2","Sundoro","Java","Stratovolcano"
"http://localhost:9091/project/volcanos/source/230","Italy","926","3.8789E1","1.5213E1","Stromboli","Italy","Stratovolcano"
"http://localhost:9091/project/volcanos/source/23","Pacific Ocean","-1500","4.595E1","-1.3E2","Axial Seamount","Pacific-NE","Submarine volcano"
"http://localhost:9091/project/volcanos/source/229","United States","2549","4.62E1","-1.2218E2","St. Helens","US-Washington","Stratovolcano"
"http://localhost:9091/project/volcanos/source/228","United States","3374","6.13E1","-1.5225E2","Spurr","Alaska-SW","Stratovolcano"
"http://localhost:9091/project/volcanos/source/227","St. Vincent & the Grenadines","1220","1.333E1","-6.118E1","Soufriere St. Vincent","W Indies","Stratovolcano"
"http://localhost:9091/project/volcanos/source/226","Montserrat","915","1.672E1","-6.218E1","Soufriere Hills","W Indies","Stratovolcano"
"http://localhost:9091/project/volcanos/source/225","Guadeloupe","1467","1.605E1","-6.167E1","Soufriere Guadeloupe","W Indies","Stratovolcano"
"http://localhost:9091/project/volcanos/source/224","Indonesia","2145","6.86E-1","9.9539E1","Sorikmarapi","Sumatra","Stratovolcano"
"http://localhost:9091/project/volcanos/source/223","Indonesia","1784","1.108E0","1.24725E2","Soputan","Sulawesi-Indonesia","Stratovolcano"
"http://localhost:9091/project/volcanos/source/222","Mexico","1050","1.878E1","-1.1095E2","Socorro","Mexico-Is","Shield volcano"
"http://localhost:9091/project/volcanos/source/221","Indonesia","3432","-7.242E0","1.09208E2","Slamet","Java","Stratovolcano"
"http://localhost:9091/project/volcanos/source/220","Indonesia","862","-8.51E0","1.24148E2","Sirung","Lesser Sunda Is","Complex volcano"
"http://localhost:9091/project/volcanos/source/22","Indonesia","1320","3.67E0","1.255E2","Awu","Sangihe Is-Indonesia","Stratovolcano"
"http://localhost:9091/project/volcanos/source/219","Russia","3283","5.6653E1","1.6136E2","Shiveluch","Kamchatka","Stratovolcano"
"http://localhost:9091/project/volcanos/source/218","United States","2857","5.475E1","-1.6397E2","Shishaldin","Aleutian Is","Stratovolcano"
"http://localhost:9091/project/volcanos/source/217","Japan","1320","4.27E1","1.4133E2","Shikotsu","Hokkaido-Japan","Caldera"
"http://localhost:9091/project/volcanos/source/216","United States","1221","5.195E1","1.7962E2","Semisopochnoi","Aleutian Is","Stratovolcano"
"http://localhost:9091/project/volcanos/source/215","Indonesia","3676","-8.108E0","1.1292E2","Semeru","Java","Stratovolcano"
"http://localhost:9091/project/volcanos/source/214","United States","1054","5.232E1","-1.7252E2","Seguam","Aleutian Is","Stratovolcano"
"http://localhost:9091/project/volcanos/source/213","Russia","1496","4.8092E1","1.532E2","Sarychev Peak","Kuril Is","Stratovolcano"
"http://localhost:9091/project/volcanos/source/212","Guatemala","3772","1.4756E1","-9.1552E1","Santa Maria","Guatemala","Stratovolcano"
"http://localhost:9091/project/volcanos/source/211","Indonesia","1949","-8.18E0","1.19058E2","Sangeang Api","Lesser Sunda Is","Complex volcano"
"http://localhost:9091/project/volcanos/source/210","Ecuador","5230","-2.03E0","-7.833E1","Sangay","Ecuador","Stratovolcano"
"http://localhost:9091/project/volcanos/source/21","Russia","2741","5.3255E1","1.5883E2","Avachinsky","Kamchatka","Stratovolcano"
"http://localhost:9091/project/volcanos/source/209","El Salvador","2130","1.3431E1","-8.8272E1","San Miguel","El Salvador","Stratovolcano"
"http://localhost:9091/project/volcanos/source/208","Nicaragua","1745","1.2702E1","-8.7004E1","San Cristobal","Nicaragua","Stratovolcano"
"http://localhost:9091/project/volcanos/source/207","Japan","1117","3.158E1","1.3067E2","Sakura-jima","Kyushu-Japan","Stratovolcano"
"http://localhost:9091/project/volcanos/source/206","Peru","5967","-1.578E1","-7.185E1","Sabancaya","Peru","Stratovolcano"
"http://localhost:9091/project/volcanos/source/205","New Zealand","-140","-3.5745E1","1.78478E2","Rumble III","New Zealand","Submarine volcano"
"http://localhost:9091/project/volcanos/source/204","Colombia","5321","4.895E0","-7.5322E1","Ruiz","Colombia","Stratovolcano"
"http://localhost:9091/project/volcanos/source/203","United States","-230","1.562E1","1.4557E2","Ruby","Mariana Is-C Pacific","Submarine volcano"
"http://localhost:9091/project/volcanos/source/202","New Zealand","2797","-3.928E1","1.7557E2","Ruapehu","New Zealand","Stratovolcano"
"http://localhost:9091/project/volcanos/source/201","Papua New Guinea","140","-5.52E0","1.48121E2","Ritter Island","New Guinea-NE of","Stratovolcano"
"http://localhost:9091/project/volcanos/source/200","Indonesia","3726","-8.42E0","1.1647E2","Rinjani","Lesser Sunda Is","Stratovolcano"
"http://localhost:9091/project/volcanos/source/20","United States","1252","5.937E1","-1.5342E2","Augustine","Alaska-SW","Lava dome"
"http://localhost:9091/project/volcanos/source/2","Japan","1718","3.762E1","1.4028E2","Adatara","Honshu-Japan","Stratovolcano"
"http://localhost:9091/project/volcanos/source/199","Costa Rica","1916","1.083E1","-8.5324E1","Rincon de la Vieja","Costa Rica","Complex volcano"
"http://localhost:9091/project/volcanos/source/198","Iceland","80","6.367E1","-2.333E1","Reykjaneshryggur","Iceland-SW","Submarine volcanoes"
"http://localhost:9091/project/volcanos/source/197","Ecuador","3562","..078E-1","-7.7656E1","Reventador","Ecuador","Stratovolcano"
"http://localhost:9091/project/volcanos/source/196","United States","3108","6.048E1","-1.5275E2","Redoubt","Alaska-SW","Stratovolcano"
"http://localhost:9091/project/volcanos/source/195","Indonesia","3332","-8.125E0","1.14042E2","Raung","Java","Stratovolcano"
"http://localhost:9091/project/volcanos/source/194","New Zealand","516","-2.927E1","-1.7792E2","Raoul Island","Kermadec Is","Stratovolcano"
"http://localhost:9091/project/volcanos/source/193","Indonesia","2100","-8.62E0","1.2052E2","Ranakah","Lesser Sunda Is","Lava dome"
"http://localhost:9091/project/volcanos/source/192","Papua New Guinea","688","-4.271E0","1.52203E2","Rabaul","New Britain-SW Pac","Pyroclastic shield"
"http://localhost:9091/project/volcanos/source/191","Chile","5890","-2.257E1","-6.787E1","Putana","Chile-N","Stratovolcano"
"http://localhost:9091/project/volcanos/source/190","Colombia","4650","2.32E0","-7.64E1","Purace","Colombia","Stratovolcano"
"http://localhost:9091/project/volcanos/source/19","United States","1533","5.238E1","-1.7415E2","Atka","Aleutian Is","Stratovolcano"
"http://localhost:9091/project/volcanos/source/189","Mexico","5426","1.9023E1","-9.8622E1","Popocatepetl","Mexico","Stratovolcano"
"http://localhost:9091/project/volcanos/source/188","Costa Rica","2708","1.02E1","-8.4233E1","Poas","Costa Rica","Stratovolcano"
"http://localhost:9091/project/volcanos/source/187","Chile","4107","-3.524E1","-7.057E1","Planchon-Peteroa","Chile-C","Caldera"
"http://localhost:9091/project/volcanos/source/186","Trinidad","140","1.0E1","-6.1E1","Piparo","Trinidad","Mud volcano"
"http://localhost:9091/project/volcanos/source/185","Philippines","1486","1.513E1","1.2035E2","Pinatubo","Luzon-Philippines","Stratovolcano"
"http://localhost:9091/project/volcanos/source/184","Indonesia","2801","4.914E0","9.6329E1","Peuet Sague","Sumatra","Complex volcano"
"http://localhost:9091/project/volcanos/source/183","United States","2519","5.542E1","-1.619E2","Pavlof","Alaska Peninsula","Stratovolcano"
"http://localhost:9091/project/volcanos/source/182","Indonesia","875","-8.32E0","1.21708E2","Paluweh","Lesser Sunda Is","Stratovolcano"
"http://localhost:9091/project/volcanos/source/181","United States","570","1.813E1","1.458E2","Pagan","Mariana Is-C Pacific","Stratovolcano"
"http://localhost:9091/project/volcanos/source/180","Guatemala","2552","1.4381E1","-9.0601E1","Pacaya","Guatemala","Complex volcano"
"http://localhost:9091/project/volcanos/source/18","Japan","1592","3.288E1","1.311E2","Aso","Kyushu-Japan","Caldera"
"http://localhost:9091/project/volcanos/source/179","Japan","758","3.473E1","1.3938E2","Oshima","Izu Is-Japan","Stratovolcano"
"http://localhost:9091/project/volcanos/source/178","Japan","3063","3.59E1","1.3748E2","On-take","Honshu-Japan","Complex volcano"
"http://localhost:9091/project/volcanos/source/177","United States","1073","5.342E1","-1.6813E2","Okmok","Aleutian Is","Shield volcano"
"http://localhost:9091/project/volcanos/source/176","New Zealand","1111","-3.812E1","1.765E2","Okataina","New Zealand","Lava dome"
"http://localhost:9091/project/volcanos/source/175","Congo, DRC","3470","-1.52E0","2.925E1","Nyiragongo","Africa-C","Stratovolcano"
"http://localhost:9091/project/volcanos/source/174","Congo, DRC","3058","-1.408E0","2.92E1","Nyamuragira","Africa-C","Shield volcano"
"http://localhost:9091/project/volcanos/source/173","Pacific Ocean","-3000","4.267E1","-1.2678E2","North Gorda Ridge","Pacific-NE","Submarine volcano"
"http://localhost:9091/project/volcanos/source/172","Tonga","260","-1.56E1","-1.7563E2","Niuafo'ou","Tonga-SW Pacific","Shield volcano"
"http://localhost:9091/project/volcanos/source/171","Japan","52","2.7243E1","1.40877E2","Nishino-shima","Volcano Is-Japan","Caldera"
"http://localhost:9091/project/volcanos/source/170","Pacific Ocean","781","-6.73E0","1.295E2","Nila","Banda Sea","Stratovolcano"
"http://localhost:9091/project/volcanos/source/17","Japan","2560","3.64E1","1.3853E2","Asama","Honshu-Japan","Complex volcano"
"http://localhost:9091/project/volcanos/source/169","Japan","2400","3.692E1","1.3803E2","Niigata-Yake-yama","Honshu-Japan","Lava dome"
"http://localhost:9091/project/volcanos/source/168","New Zealand","2291","-3.9158E1","1.7563E2","Ngauruhoe","New Zealand","Stratovolcano"
"http://localhost:9091/project/volcanos/source/167","Nicaragua","728","1.2506E1","-8.6702E1","Negro, Cerro","Nicaragua","Cinder cone"
"http://localhost:9091/project/volcanos/source/166","Ecuador","1490","..83E-1","-9.117E1","Negra, Sierra","Galapagos","Shield volcano"
"http://localhost:9091/project/volcanos/source/165","Iceland","1491","6.398E1","-1.97E1","Mundafell","Iceland-S","Stratovolcano"
"http://localhost:9091/project/volcanos/source/164","New Zealand","-100","-2.5887E1","-1.77188E2","Monowai Seamount","Kermadec Is","Submarine volcano"
"http://localhost:9091/project/volcanos/source/163","Japan","815","3.408E1","1.3953E2","Miyake-jima","Izu Is-Japan","Stratovolcano"
"http://localhost:9091/project/volcanos/source/162","Japan","-30","2.3507E1","1.41905E2","Minami-Hiyoshi","Volcano Is-Japan","Submarine volcano"
"http://localhost:9091/project/volcanos/source/161","Tonga","43","-1.918E1","-1.7487E2","Metis Shoal","Tonga-SW Pacific","Submarine volcano"
"http://localhost:9091/project/volcanos/source/160","Indonesia","2947","-7.542E0","1.10442E2","Merapi","Java","Stratovolcano"
"http://localhost:9091/project/volcanos/source/16","Costa Rica","1657","1.0463E1","-8.4703E1","Arenal","Costa Rica","Stratovolcano"
"http://localhost:9091/project/volcanos/source/159","Russia","1124","4.538E1","1.4883E2","Medvezhia","Kuril Is","Somma volcano"
"http://localhost:9091/project/volcanos/source/158","Indian Ocean","186","-5.303E1","7.26E1","McDonald Islands","Indian O-S","Complex volcano"
"http://localhost:9091/project/volcanos/source/157","Philippines","2462","1.3257E1","1.23685E2","Mayon","Luzon-Philippines","Stratovolcano"
"http://localhost:9091/project/volcanos/source/156","United States","4170","1.9475E1","-1.55608E2","Mauna Loa","Hawaiian Is","Shield volcano"
"http://localhost:9091/project/volcanos/source/155","Nicaragua","635","1.1984E1","-8.6161E1","Masaya","Nicaragua","Caldera"
"http://localhost:9091/project/volcanos/source/154","South Africa","1230","-4.69E1","3.775E1","Marion Island","Indian O-S","Shield volcano"
"http://localhost:9091/project/volcanos/source/153","Ecuador","343","3.3E-1","-9.047E1","Marchena","Galapagos","Shield volcano"
"http://localhost:9091/project/volcanos/source/152","Indonesia","2891","..381E-1","1.00473E2","Marapi","Sumatra","Complex volcano"
"http://localhost:9091/project/volcanos/source/151","Papua New Guinea","1807","-4.1E0","1.45061E2","Manam","New Guinea-NE of","Stratovolcano"
"http://localhost:9091/project/volcanos/source/150","United States","2036","5.39E1","-1.6693E2","Makushin","Aleutian Is","Stratovolcano"
"http://localhost:9091/project/volcanos/source/15","Djibouti","298","1.158E1","4.247E1","Ardoukoba","Africa-NE","Fissure vent"
"http://localhost:9091/project/volcanos/source/149","Indonesia","1357","3.2E-1","1.274E2","Makian","Halmahera-Indonesia","Stratovolcano"
"http://localhost:9091/project/volcanos/source/148","Indonesia","1324","1.358E0","1.24858E2","Mahawu","Sulawesi-Indonesia","Stratovolcano"
"http://localhost:9091/project/volcanos/source/147","Antarctica","-50","-2.898E1","-1.4025E2","Macdonald","Austral Is-C Pacific","Submarine volcano"
"http://localhost:9091/project/volcanos/source/146","Vanuatu","1413","-1.6507E1","1.68346E2","Lopevi","Vanuatu-SW Pacific","Stratovolcano"
"http://localhost:9091/project/volcanos/source/145","Chile","2865","-3.8377E1","-7.158E1","Lonquimay","Chile-C","Stratovolcano"
"http://localhost:9091/project/volcanos/source/144","Papua New Guinea","1280","-5.358E0","1.4712E2","Long Island","New Guinea-NE of","Complex volcano"
"http://localhost:9091/project/volcanos/source/143","Indonesia","1580","1.358E0","1.24792E2","Lokon-Empung","Sulawesi-Indonesia","Stratovolcano"
"http://localhost:9091/project/volcanos/source/142","United States","-975","1.892E1","-1.5527E2","Loihi","Hawaiian Is","Submarine volcano"
"http://localhost:9091/project/volcanos/source/141","Chile","3125","-3.8692E1","-7.1729E1","Llaima","Chile-C","Stratovolcano"
"http://localhost:9091/project/volcanos/source/140","Indonesia","1703","-8.575E0","1.2278E2","Lewotobi Perempuan","Lesser Sunda Is","Stratovolcano"
"http://localhost:9091/project/volcanos/source/14","Argentina","6082","-2.427E1","-6.777E1","Aracar","Argentina","Stratovolcano"
"http://localhost:9091/project/volcanos/source/139","Indonesia","1703","-8.53E0","1.22775E2","Lewotobi","Lesser Sunda Is","Stratovolcano"
"http://localhost:9091/project/volcanos/source/138","Tanzania","2890","-2.751E0","3.5902E1","Lengai, Ol Doinyo","Africa-E","Stratovolcano"
"http://localhost:9091/project/volcanos/source/137","Chile","5592","-2.337E1","-6.773E1","Lascar","Chile-N","Stratovolcano"
"http://localhost:9091/project/volcanos/source/136","Papua New Guinea","1330","-5.525E0","1.4842E2","Langila","New Britain-SW Pac","Complex volcano"
"http://localhost:9091/project/volcanos/source/135","Iceland","550","6.408E1","-1.94E1","Lambafit","Iceland-S","Crater rows"
"http://localhost:9091/project/volcanos/source/134","Sweden","1725","6.442E1","1.733E1","Lakagigar","Iceland-NE","Caldera"
"http://localhost:9091/project/volcanos/source/133","Spain","2426","2.858E1","-1.783E1","La Palma","Canary Is","Stratovolcano"
"http://localhost:9091/project/volcanos/source/132","Iceland","1920","6.465E1","-1.672E1","Kverkfjoll","Iceland-NE","Stratovolcano"
"http://localhost:9091/project/volcanos/source/131","Vanuatu","-2","-1.6829E1","1.68536E2","Kuwae","Vanuatu-SW Pacific","Caldera"
"http://localhost:9091/project/volcanos/source/130","Japan","2176","3.662E1","1.3855E2","Kusatsu-Shirane","Honshu-Japan","Stratovolcano"
"http://localhost:9091/project/volcanos/source/13","Vanuatu","1496","-1.54E1","1.6783E2","Aoba","Vanuatu-SW Pacific","Shield volcano"
"http://localhost:9091/project/volcanos/source/129","United States","1895","5.602E1","-1.598E2","Kupreanof","Alaska Peninsula","Stratovolcano"
"http://localhost:9091/project/volcanos/source/128","Japan","1788","3.308E1","1.3125E2","Kuju Group","Kyushu-Japan","Stratovolcano"
"http://localhost:9091/project/volcanos/source/127","Japan","649","3.043E1","1.3022E2","Kuchinoerabu-jima","Ryukyu Is","Stratovolcano"
"http://localhost:9091/project/volcanos/source/126","Indonesia","813","-6.102E0","1.05423E2","Krakatau","Indonesia","Caldera"
"http://localhost:9091/project/volcanos/source/125","Iceland","1491","6.398E1","-1.97E1","Krakagiger","Iceland-S","Stratovolcano"
"http://localhost:9091/project/volcanos/source/124","Iceland","650","6.573E1","-1.678E1","Krafla","Iceland-NE","Caldera"
"http://localhost:9091/project/volcanos/source/123","Japan","1140","4.207E1","1.4068E2","Komaga-take","Hokkaido-Japan","Stratovolcano"
"http://localhost:9091/project/volcanos/source/122","Russia","1328","4.6042E1","1.5005E2","Kolokol Group","Kuril Is","Somma volcano"
"http://localhost:9091/project/volcanos/source/121","Russia","4835","5.6057E1","1.60638E2","Kliuchevskoi","Kamchatka","Stratovolcano"
"http://localhost:9091/project/volcanos/source/120","United States","1220","5.21E1","1.776E2","Kiska","Aleutian Is","Stratovolcano"
"http://localhost:9091/project/volcanos/source/12","United States","1066","5.25E1","-1.7125E2","Amukta","Aleutian Is","Stratovolcano"
"http://localhost:9091/project/volcanos/source/119","Japan","1700","3.193E1","1.3087E2","Kirishima","Kyushu-Japan","Shield volcano"
"http://localhost:9091/project/volcanos/source/118","United States","1222","1.9425E1","-1.55292E2","Kilauea","Hawaiian Is","Shield volcano"
"http://localhost:9091/project/volcanos/source/117","Japan","717","3.078E1","1.3028E2","Kikai","Ryukyu Is","Caldera"
"http://localhost:9091/project/volcanos/source/116","Netherlands","-177","1.23E1","-6.163E1","Kick-'em-Jenny","W Indies","Submarine volcano"
"http://localhost:9091/project/volcanos/source/115","Indonesia","3800","-1.814E0","1.01264E2","Kerinci","Sumatra","Stratovolcano"
"http://localhost:9091/project/volcanos/source/114","Indonesia","1731","-7.93E0","1.12308E2","Kelut","Java","Stratovolcano"
"http://localhost:9091/project/volcanos/source/113","Indonesia","1640","-8.758E0","1.2183E2","Kelimutu","Lesser Sunda Is","Complex volcano"
"http://localhost:9091/project/volcanos/source/112","Solomon Is.","-20","-9.02E0","1.5795E2","Kavachi","Solomon Is-SW Pacifi","Submarine volcano"
"http://localhost:9091/project/volcanos/source/111","United States","314","5.218E1","-1.755E2","Kasatochi","Aleutian Is","Stratovolcano"
"http://localhost:9091/project/volcanos/source/110","Russia","1536","5.405E1","1.5943E2","Karymsky","Kamchatka","Stratovolcano"
"http://localhost:9091/project/volcanos/source/11","Vanuatu","1334","-1.625E1","1.6812E2","Ambrym","Vanuatu-SW Pacific","Pyroclastic shield"
"http://localhost:9091/project/volcanos/source/109","Comoros","2361","-1.175E1","4.338E1","Karthala","Indian O-W","Shield volcano"
"http://localhost:9091/project/volcanos/source/108","Papua New Guinea","1839","-4.649E0","1.45964E2","Karkar","New Guinea-NE of","Stratovolcano"
"http://localhost:9091/project/volcanos/source/107","Indonesia","1784","2.78E0","1.2548E2","Karangetang [Api Siau]","Sangihe Is-Indonesia","Stratovolcano"
"http://localhost:9091/project/volcanos/source/106","United States","1307","5.192E1","-1.7717E2","Kanaga","Aleutian Is","Stratovolcano"
"http://localhost:9091/project/volcanos/source/105","Japan","-10","2.6122E1","1.41102E2","Kaitoku Seamount","Volcano Is-Japan","Submarine volcano"
"http://localhost:9091/project/volcanos/source/104","Jan Mayen","2277","7.108E1","-8.17E0","Jan Mayen","Atlantic-N-Jan Mayen","Stratovolcano"
"http://localhost:9091/project/volcanos/source/103","Japan","1406","3.492E1","1.3912E2","Izu-Tobu","Honshu-Japan","Pyroclastic cone"
"http://localhost:9091/project/volcanos/source/102","El Salvador","1950","1.3813E1","-8.9633E1","Izalco","El Salvador","Stratovolcano"
"http://localhost:9091/project/volcanos/source/101","Indonesia","637","-8.88E0","1.2163E2","Iya","Lesser Sunda Is","Stratovolcano"
"http://localhost:9091/project/volcanos/source/100","Japan","161","2.475E1","1.4133E2","Iwo-jima","Volcano Is-Japan","Caldera"
"http://localhost:9091/project/volcanos/source/10","Ecuador","1130","..43E-1","-9.112E1","Alcedo, Volcan","Galapagos","Shield volcano"
"http://localhost:9091/project/volcanos/source/1","Guatemala","3976","1.4501E1","-9.0876E1","Acatenango","Guatemala","Stratovolcano"
